[{"OBJECT_NAME":"GAOFEN-12 03","OBJECT_ID":"2022-069A","EPOCH":"2026-03-09T22:26:41.020800","MEAN_MOTION":14.79856399,"ECCENTRICITY":0.00023242,"INCLINATION":97.8403,"RA_OF_ASC_NODE":319.2501,"ARG_OF_PERICENTER":91.8845,"MEAN_ANOMALY":268.2634,"EPHEMERIS_TYPE":0,"CLASSIFICATION_TYPE":"U","NORAD_CAT_ID":52912,"ELEMENT_SET_NO":999,"REV_AT_EPOCH":19993,"BSTAR":0.00029245071,"MEAN_MOTION_DOT":2.154e-5,"MEAN_MOTION_DDOT":0},{"OBJECT_NAME":"COSMOS 2251 DEB","OBJECT_ID":"1993-036AVV","EPOCH":"2026-03-08T23:33:31.536864","MEAN_MOTION":14.75797784,"ECCENTRICITY":0.00588771,"INCLINATION":74.0072,"RA_OF_ASC_NODE":69.5032,"ARG_OF_PERICENTER":184.0829,"MEAN_ANOMALY":207.5189,"EPHEMERIS_TYPE":0,"CLASSIFICATION_TYPE":"U","NORAD_CAT_ID":35979,"ELEMENT_SET_NO":999,"REV_AT_EPOCH":89905,"BSTAR":0.0009649767,"MEAN_MOTION_DOT":6.775e-5,"MEAN_MOTION_DDOT":0}]
